STARLINK-35972          
1 66638U 25271X   25339.18335298 -.00369388  00000+0 -21744-2 0  9995
2 66638  53.1548 224.1592 0000739 112.1161 247.9940 15.78483302  3025
STARLINK-35908          
1 66639U 25271Y   25338.10723968  .00777445  00000+0  30756-2 0  9990
2 66639  53.1556 229.5367 0009705 335.6046  24.4518 15.84226755  2853
STARLINK-35921          
1 66640U 25271Z   25338.29680498  .00327985  00000+0  15698-2 0  9990
2 66640  53.1562 228.5854 0004963   9.2257 350.8856 15.81318878  2880
STARLINK-35923          
1 66641U 25271AA  25339.24289199  .01350130  00000+0  53549-2 0  9996
2 66641  53.1564 223.8190 0029253 299.3636  60.4467 15.82828724  3033
STARLINK-35926          
1 66642U 25271AB  25339.18091532 -.00219523  00000+0 -13018-2 0  9990
2 66642  53.1543 224.1424 0002359 227.7076 132.3746 15.77900000  2980
STARLINK-35918          
1 66643U 25271AC  25338.86459959  .01071055  00000+0  45810-2 0  9996
2 66643  53.1558 225.7279 0014400 264.2391  95.6991 15.82179053  2972
STARLINK-35938          
1 66644U 25271AD  25338.92754595  .00752900  00000+0  33361-2 0  9990
2 66644  53.1553 225.4081 0012965 257.2448 102.7126 15.81826433  2986
SHENZHOU-22             
1 66645U 25272A   25339.28337955  .00034071  00000+0  43162-3 0  9992
2 66645  41.4682  61.9587 0009834 333.0075  27.0251 15.58716050262897
CZ-2F R/B               
1 66646U 25272B   25330.47076975  .00449059  75676-5  29319-3 0  9998
2 66646  41.4431 114.9009 0121079 133.7676 227.3272 16.01945612   217
COSMOS 2597 (RODNIK-S *)
1 66647U 25273A   25339.30406444  .00000004  00000+0 -45565-4 0  9998
2 66647  82.4983 291.0668 0008071 306.7254  53.3083 12.41951079  1215
COSMOS 2598 (RODNIK-S *)
1 66648U 25273B   25338.25472089  .00000007  00000+0 -20720-4 0  9999
2 66648  82.5023 291.7242 0008196 297.6387  62.3860 12.42253119  1089
COSMOS 2599 (RODNIK-S *)
1 66649U 25273C   25339.30623682  .00000008  00000+0 -16317-4 0  9992
2 66649  82.5023 291.0779 0008307 316.9576  43.0853 12.41671807  1217
