CCSDS_OMM_VERS = 2.0
CREATION_DATE  = 
ORIGINATOR     = 

OBJECT_NAME    = STARLINK-35972
OBJECT_ID      = 2025-271X
CENTER_NAME    = EARTH
REF_FRAME      = TEME
TIME_SYSTEM    = UTC
MEAN_ELEMENT_THEORY = SGP/SGP4

EPOCH          = 2025-12-05T04:24:01.697472
MEAN_MOTION    = 15.78483302
ECCENTRICITY   = .00007392
INCLINATION    = 53.1548
RA_OF_ASC_NODE = 224.1592
ARG_OF_PERICENTER = 112.1161
MEAN_ANOMALY   = 247.9940

EPHEMERIS_TYPE = 0
CLASSIFICATION_TYPE = U
NORAD_CAT_ID   = 66638
ELEMENT_SET_NO = 999
REV_AT_EPOCH   = 302
BSTAR          = -.21743728E-2
MEAN_MOTION_DOT = -.369388E-2
MEAN_MOTION_DDOT = 0

CCSDS_OMM_VERS = 2.0
CREATION_DATE  = 
ORIGINATOR     = 

OBJECT_NAME    = STARLINK-35908
OBJECT_ID      = 2025-271Y
CENTER_NAME    = EARTH
REF_FRAME      = TEME
TIME_SYSTEM    = UTC
MEAN_ELEMENT_THEORY = SGP/SGP4

EPOCH          = 2025-12-04T02:34:25.508352
MEAN_MOTION    = 15.84226755
ECCENTRICITY   = .00097052
INCLINATION    = 53.1556
RA_OF_ASC_NODE = 229.5367
ARG_OF_PERICENTER = 335.6046
MEAN_ANOMALY   = 24.4518

EPHEMERIS_TYPE = 0
CLASSIFICATION_TYPE = U
NORAD_CAT_ID   = 66639
ELEMENT_SET_NO = 999
REV_AT_EPOCH   = 285
BSTAR          = .30756132E-2
MEAN_MOTION_DOT = .777445E-2
MEAN_MOTION_DDOT = 0

CCSDS_OMM_VERS = 2.0
CREATION_DATE  = 
ORIGINATOR     = 

OBJECT_NAME    = STARLINK-35921
OBJECT_ID      = 2025-271Z
CENTER_NAME    = EARTH
REF_FRAME      = TEME
TIME_SYSTEM    = UTC
MEAN_ELEMENT_THEORY = SGP/SGP4

EPOCH          = 2025-12-04T07:07:23.950272
MEAN_MOTION    = 15.81318878
ECCENTRICITY   = .0004963
INCLINATION    = 53.1562
RA_OF_ASC_NODE = 228.5854
ARG_OF_PERICENTER = 9.2257
MEAN_ANOMALY   = 350.8856

EPHEMERIS_TYPE = 0
CLASSIFICATION_TYPE = U
NORAD_CAT_ID   = 66640
ELEMENT_SET_NO = 999
REV_AT_EPOCH   = 288
BSTAR          = .15698E-2
MEAN_MOTION_DOT = .327985E-2
MEAN_MOTION_DDOT = 0

CCSDS_OMM_VERS = 2.0
CREATION_DATE  = 
ORIGINATOR     = 

OBJECT_NAME    = STARLINK-35923
OBJECT_ID      = 2025-271AA
CENTER_NAME    = EARTH
REF_FRAME      = TEME
TIME_SYSTEM    = UTC
MEAN_ELEMENT_THEORY = SGP/SGP4

EPOCH          = 2025-12-05T05:49:45.867936
MEAN_MOTION    = 15.82828724
ECCENTRICITY   = .00292539
INCLINATION    = 53.1564
RA_OF_ASC_NODE = 223.8190
ARG_OF_PERICENTER = 299.3636
MEAN_ANOMALY   = 60.4467

EPHEMERIS_TYPE = 0
CLASSIFICATION_TYPE = U
NORAD_CAT_ID   = 66641
ELEMENT_SET_NO = 999
REV_AT_EPOCH   = 303
BSTAR          = .53548979E-2
MEAN_MOTION_DOT = .135013E-1
MEAN_MOTION_DDOT = 0

CCSDS_OMM_VERS = 2.0
CREATION_DATE  = 
ORIGINATOR     = 

OBJECT_NAME    = STARLINK-35926
OBJECT_ID      = 2025-271AB
CENTER_NAME    = EARTH
REF_FRAME      = TEME
TIME_SYSTEM    = UTC
MEAN_ELEMENT_THEORY = SGP/SGP4

EPOCH          = 2025-12-05T04:20:31.083648
MEAN_MOTION    = 15.77900000
ECCENTRICITY   = .0002359
INCLINATION    = 53.1543
RA_OF_ASC_NODE = 224.1424
ARG_OF_PERICENTER = 227.7076
MEAN_ANOMALY   = 132.3746

EPHEMERIS_TYPE = 0
CLASSIFICATION_TYPE = U
NORAD_CAT_ID   = 66642
ELEMENT_SET_NO = 999
REV_AT_EPOCH   = 298
BSTAR          = -.13018128E-2
MEAN_MOTION_DOT = -.219523E-2
MEAN_MOTION_DDOT = 0

CCSDS_OMM_VERS = 2.0
CREATION_DATE  = 
ORIGINATOR     = 

OBJECT_NAME    = STARLINK-35918
OBJECT_ID      = 2025-271AC
CENTER_NAME    = EARTH
REF_FRAME      = TEME
TIME_SYSTEM    = UTC
MEAN_ELEMENT_THEORY = SGP/SGP4

EPOCH          = 2025-12-04T20:45:01.404576
MEAN_MOTION    = 15.82179053
ECCENTRICITY   = .00144
INCLINATION    = 53.1558
RA_OF_ASC_NODE = 225.7279
ARG_OF_PERICENTER = 264.2391
MEAN_ANOMALY   = 95.6991

EPHEMERIS_TYPE = 0
CLASSIFICATION_TYPE = U
NORAD_CAT_ID   = 66643
ELEMENT_SET_NO = 999
REV_AT_EPOCH   = 297
BSTAR          = .4581E-2
MEAN_MOTION_DOT = .1071055E-1
MEAN_MOTION_DDOT = 0

CCSDS_OMM_VERS = 2.0
CREATION_DATE  = 
ORIGINATOR     = 

OBJECT_NAME    = STARLINK-35938
OBJECT_ID      = 2025-271AD
CENTER_NAME    = EARTH
REF_FRAME      = TEME
TIME_SYSTEM    = UTC
MEAN_ELEMENT_THEORY = SGP/SGP4

EPOCH          = 2025-12-04T22:15:39.970080
MEAN_MOTION    = 15.81826433
ECCENTRICITY   = .0012965
INCLINATION    = 53.1553
RA_OF_ASC_NODE = 225.4081
ARG_OF_PERICENTER = 257.2448
MEAN_ANOMALY   = 102.7126

EPHEMERIS_TYPE = 0
CLASSIFICATION_TYPE = U
NORAD_CAT_ID   = 66644
ELEMENT_SET_NO = 999
REV_AT_EPOCH   = 298
BSTAR          = .33361E-2
MEAN_MOTION_DOT = .7529E-2
MEAN_MOTION_DDOT = 0

CCSDS_OMM_VERS = 2.0
CREATION_DATE  = 
ORIGINATOR     = 

OBJECT_NAME    = SHENZHOU-22
OBJECT_ID      = 2025-272A
CENTER_NAME    = EARTH
REF_FRAME      = TEME
TIME_SYSTEM    = UTC
MEAN_ELEMENT_THEORY = SGP/SGP4

EPOCH          = 2025-12-05T06:48:03.993120
MEAN_MOTION    = 15.58716050
ECCENTRICITY   = .00098342
INCLINATION    = 41.4682
RA_OF_ASC_NODE = 61.9587
ARG_OF_PERICENTER = 333.0075
MEAN_ANOMALY   = 27.0251

EPHEMERIS_TYPE = 0
CLASSIFICATION_TYPE = U
NORAD_CAT_ID   = 66645
ELEMENT_SET_NO = 999
REV_AT_EPOCH   = 26289
BSTAR          = .43162186E-3
MEAN_MOTION_DOT = .34071E-3
MEAN_MOTION_DDOT = 0

CCSDS_OMM_VERS = 2.0
CREATION_DATE  = 
ORIGINATOR     = 

OBJECT_NAME    = CZ-2F R/B
OBJECT_ID      = 2025-272B
CENTER_NAME    = EARTH
REF_FRAME      = TEME
TIME_SYSTEM    = UTC
MEAN_ELEMENT_THEORY = SGP/SGP4

EPOCH          = 2025-11-26T11:17:54.506400
MEAN_MOTION    = 16.01945612
ECCENTRICITY   = .01210796
INCLINATION    = 41.4431
RA_OF_ASC_NODE = 114.9009
ARG_OF_PERICENTER = 133.7676
MEAN_ANOMALY   = 227.3272

EPHEMERIS_TYPE = 0
CLASSIFICATION_TYPE = U
NORAD_CAT_ID   = 66646
ELEMENT_SET_NO = 999
REV_AT_EPOCH   = 21
BSTAR          = .29319366E-3
MEAN_MOTION_DOT = .449059E-2
MEAN_MOTION_DDOT = .7567612E-5

CCSDS_OMM_VERS = 2.0
CREATION_DATE  = 
ORIGINATOR     = 

OBJECT_NAME    = COSMOS 2597 (RODNIK-S 22)
OBJECT_ID      = 2025-273A
CENTER_NAME    = EARTH
REF_FRAME      = TEME
TIME_SYSTEM    = UTC
MEAN_ELEMENT_THEORY = SGP/SGP4

EPOCH          = 2025-12-05T07:17:51.167616
MEAN_MOTION    = 12.41951079
ECCENTRICITY   = .00080713
INCLINATION    = 82.4983
RA_OF_ASC_NODE = 291.0668
ARG_OF_PERICENTER = 306.7254
MEAN_ANOMALY   = 53.3083

EPHEMERIS_TYPE = 0
CLASSIFICATION_TYPE = U
NORAD_CAT_ID   = 66647
ELEMENT_SET_NO = 999
REV_AT_EPOCH   = 121
BSTAR          = -.45564816E-4
MEAN_MOTION_DOT = .4E-7
MEAN_MOTION_DDOT = 0

CCSDS_OMM_VERS = 2.0
CREATION_DATE  = 
ORIGINATOR     = 

OBJECT_NAME    = COSMOS 2598 (RODNIK-S 23)
OBJECT_ID      = 2025-273B
CENTER_NAME    = EARTH
REF_FRAME      = TEME
TIME_SYSTEM    = UTC
MEAN_ELEMENT_THEORY = SGP/SGP4

EPOCH          = 2025-12-04T06:06:47.884896
MEAN_MOTION    = 12.42253119
ECCENTRICITY   = .0008196
INCLINATION    = 82.5023
RA_OF_ASC_NODE = 291.7242
ARG_OF_PERICENTER = 297.6387
MEAN_ANOMALY   = 62.3860

EPHEMERIS_TYPE = 0
CLASSIFICATION_TYPE = U
NORAD_CAT_ID   = 66648
ELEMENT_SET_NO = 999
REV_AT_EPOCH   = 108
BSTAR          = -.2072E-4
MEAN_MOTION_DOT = .7E-7
MEAN_MOTION_DDOT = 0

CCSDS_OMM_VERS = 2.0
CREATION_DATE  = 
ORIGINATOR     = 

OBJECT_NAME    = COSMOS 2599 (RODNIK-S 24)
OBJECT_ID      = 2025-273C
CENTER_NAME    = EARTH
REF_FRAME      = TEME
TIME_SYSTEM    = UTC
MEAN_ELEMENT_THEORY = SGP/SGP4

EPOCH          = 2025-12-05T07:20:58.861248
MEAN_MOTION    = 12.41671807
ECCENTRICITY   = .00083078
INCLINATION    = 82.5023
RA_OF_ASC_NODE = 291.0779
ARG_OF_PERICENTER = 316.9576
MEAN_ANOMALY   = 43.0853

EPHEMERIS_TYPE = 0
CLASSIFICATION_TYPE = U
NORAD_CAT_ID   = 66649
ELEMENT_SET_NO = 999
REV_AT_EPOCH   = 121
BSTAR          = -.16317304E-4
MEAN_MOTION_DOT = .8E-7
MEAN_MOTION_DDOT = 0

